GLOBALSTAR M057         
1 25943U 99058A   24292.80195587 -.00000083  00000+0  91484-4 0  9997
2 25943  51.9995 313.2420 0002177 239.9283 120.1351 12.24802017137350
GLOBALSTAR M059         
1 25944U 99058B   24292.85142926 -.00000044  00000+0  52698-3 0  9992
2 25944  51.9993 140.0585 0001028  95.5009 278.9218 11.99967303545070
GLOBALSTAR M056         
1 25945U 99058C   24292.90109064 -.00000102  00000+0 -17286-3 0  9995
2 25945  51.9941 148.0769 0001931  69.8546 303.6843 12.04777028133544
GLOBALSTAR M031         
1 25946U 99058D   24293.10636633 -.00000023  00000+0  68919-3 0  9996
2 25946  51.9976  54.2764 0001914  69.6095 101.3890 12.16018918135450
GLOBALSTAR M039         
1 25961U 99062A   24293.13875407 -.00000056  00000+0  26707-3 0  9990
2 25961  51.9842 282.8932 0002570 167.4414 192.6517 12.62306841149805
GLOBALSTAR M034         
1 25962U 99062B   24293.18442859 -.00000059  00000+0  34443-3 0  9996
2 25962  51.9865 277.8519 0014040 307.8547 134.9000 11.79434549109938
GLOBALSTAR M029         
1 25963U 99062C   24293.44296883 -.00000065  00000+0  26269-3 0  9994
2 25963  51.9833  26.6992 0002386  18.2297  63.6709 11.99884867140274
GLOBALSTAR M061         
1 25964U 99062D   24293.17239402 -.00000079  00000+0  16349-4 0  9993
2 25964  51.9778  98.7174 0005344 224.5706 307.4603 11.76767350 93090
